SatCatId,ObjectName,LaunchYear,OrbitalPeriod,LaunchMass,StatusCode,Inclination,Status,UcsData,OrbitClassEstimated,LaunchSiteCountry,Owner,UseType,Purpose,LaunchVehicleClass,TLE1,TLE2,MeanMotion,Eccentricity,OrbitClass
57996,STARLINK-30543,2023,90.97,-1.0,P,42.98,Active,0,LEO,USA,USA,Unknown,Unknown,Falcon,1 57996U 23153F   24011.31184327 -.00019657  00000+0 -87437-4 0  9999,2 57996  42.9771 346.5645 0003345 224.2335 135.8269 15.82853441 16807,15.82853441,0.0003345,LEO
57997,STARLINK-30523,2023,95.04,-1.0,+,43.0,Active,0,LEO,USA,USA,Unknown,Unknown,Falcon,1 57997U 23153G   24011.14348843  .00045101  00000+0  23587-2 0  9991,2 57997  43.0017  36.4469 0000751 286.5366  73.5399 15.15162509 16238,15.15162509,7.51e-05,LEO
57998,STARLINK-30531,2023,95.04,-1.0,+,43.0,Active,0,LEO,USA,USA,Unknown,Unknown,Falcon,1 57998U 23153H   24011.13210434  .00001604  00000+0  96093-4 0  9999,2 57998  43.0029  36.3603 0000826 246.9306 113.1454 15.15142084 16226,15.15142084,8.26e-05,LEO
57999,STARLINK-30552,2023,95.04,-1.0,+,43.0,Active,0,LEO,USA,USA,Unknown,Unknown,Falcon,1 57999U 23153J   24011.46421784  .00035979  00000+0  18862-2 0  9996,2 57999  43.0020  34.5534 0001257 281.0970  78.9736 15.15167461 16280,15.15167461,0.0001257,LEO
58000,STARLINK-30545,2023,94.99,-1.0,+,43.0,Active,0,LEO,USA,USA,Unknown,Unknown,Falcon,1 58000U 23153K   24011.42627660  .00008096  00000+0  42592-3 0  9995,2 58000  43.0017  34.2715 0000895 251.3890 108.6860 15.15949425 16283,15.15949425,8.95e-05,LEO
58001,STARLINK-30535,2023,94.99,-1.0,+,43.0,Active,0,LEO,USA,USA,Unknown,Unknown,Falcon,1 58001U 23153L   24011.09454833  .00003171  00000+0  17411-3 0  9990,2 58001  43.0009  36.0813 0000883 249.0040 111.0713 15.15964358 16234,15.15964358,8.83e-05,LEO
58002,STARLINK-30540,2023,94.99,-1.0,+,43.0,Active,0,LEO,USA,USA,Unknown,Unknown,Falcon,1 58002U 23153M   24011.45344874  .00002758  00000+0  15300-3 0  9999,2 58002  43.0003  33.6132 0001017 256.0536 104.0198 15.15963056 16181,15.15963056,0.0001017,LEO
58003,STARLINK-30546,2023,94.99,-1.0,+,43.0,Active,0,LEO,USA,USA,Unknown,Unknown,Falcon,1 58003U 23153N   24011.48759386  .00012150  00000+0  63231-3 0  9994,2 58003  43.0017  33.8719 0001211 252.6211 107.4504 15.15981949 16299,15.15981949,0.0001211,LEO
58004,STARLINK-30539,2023,95.04,-1.0,+,43.0,Active,0,LEO,USA,USA,Unknown,Unknown,Falcon,1 58004U 23153P   24011.45169228  .00025161  00000+0  13266-2 0  9990,2 58004  43.0018  34.4571 0001125 255.1041 104.9682 15.15115493 16277,15.15115493,0.0001125,LEO
58005,STARLINK-30530,2023,94.99,-1.0,+,43.0,Active,0,LEO,USA,USA,Unknown,Unknown,Falcon,1 58005U 23153Q   24011.47849349  .00016484  00000+0  85321-3 0  9992,2 58005  43.0017  33.8029 0001071 250.7180 109.3552 15.15979515 16293,15.15979515,0.0001071,LEO
58006,STARLINK-30526,2023,94.37,-1.0,+,43.0,Active,0,LEO,USA,USA,Unknown,Unknown,Falcon,1 58006U 23153R   24011.37716190 -.00081382  00000+0 -31722-2 0  9995,2 58006  42.9990  12.9882 0000930 287.2928  72.7821 15.25527979 16516,15.25527979,9.3e-05,LEO
58007,STARLINK-30527,2023,91.08,-1.0,P,42.99,Active,0,LEO,USA,USA,Unknown,Unknown,Falcon,1 58007U 23153S   24011.58335648  .00209581  00000+0  10971-2 0  9998,2 58007  42.9922 353.7173 0002469 252.8255 337.3428 15.79428620 16707,15.7942862,0.0002469,LEO
58008,STARLINK-30522,2023,95.15,-1.0,+,43.0,Active,0,LEO,USA,USA,Unknown,Unknown,Falcon,1 58008U 23153T   24011.09706186  .00042083  00000+0  23085-2 0  9996,2 58008  43.0006  36.9440 0001496 275.4259  84.6417 15.13495834 16219,15.13495834,0.0001496,LEO
58009,STARLINK-30486,2023,94.99,-1.0,+,43.0,Active,0,LEO,USA,USA,Unknown,Unknown,Falcon,1 58009U 23153U   24011.47166518  .00011577  00000+0  60318-3 0  9993,2 58009  43.0010  33.7506 0000855 263.5795  96.4955 15.15979678 15957,15.15979678,8.55e-05,LEO
58010,STARLINK-30520,2023,94.99,-1.0,+,43.0,Active,0,LEO,USA,USA,Unknown,Unknown,Falcon,1 58010U 23153V   24011.13311496  .00019060  00000+0  98460-3 0  9999,2 58010  43.0002  35.5087 0001063 237.0375 123.0370 15.15970308 16136,15.15970308,0.0001063,LEO
58011,STARLINK-30497,2023,94.99,-1.0,+,43.0,Active,0,LEO,USA,USA,Unknown,Unknown,Falcon,1 58011U 23153W   24011.46027823  .00013383  00000+0  69523-3 0  9994,2 58011  43.0002  33.6642 0000928 269.9473  90.1268 15.15978350 16286,15.1597835,9.28e-05,LEO
58012,STARLINK-30525,2023,94.99,-1.0,+,43.0,Active,0,LEO,USA,USA,Unknown,Unknown,Falcon,1 58012U 23153X   24011.45117544  .00001878  00000+0  10800-3 0  9994,2 58012  43.0003  33.5962 0001042 256.7229 103.3503 15.15958007 16289,15.15958007,0.0001042,LEO
58013,KUIPER-P2,2023,94.29,-1.0,+,29.99,Active,0,LEO,USA,USA,Unknown,Unknown,Unknown,1 58013U 23154A   24010.76963321  .00018958  00000+0  67988-3 0  9997,2 58013  29.9877 177.1649 0014139 239.5756 120.3471 15.27311788 14670,15.27311788,0.0014139,LEO
58014,KUIPER-P1,2023,94.28,-1.0,+,29.99,Active,0,LEO,USA,USA,Unknown,Unknown,Unknown,1 58014U 23154B   24010.77033451  .00016122  00000+0  57723-3 0  9998,2 58014  29.9872 177.1695 0014371 239.5923 120.3281 15.27325989 14678,15.27325989,0.0014371,LEO
58016,THEOS-2 (T2V),2023,97.18,-1.0,+,97.9,Active,0,LEO,French Guiana,Thailand,Unknown,Unknown,Unknown,1 58016U 23155A   24011.46605079  .00001547  00000+0  20293-3 0  9996,2 58016  97.8985  84.2347 0001506  90.7750 269.3636 14.81718718 13977,14.81718718,0.0001506,LEO
58017,FORMOSAT-7R (TRITON),2023,96.72,-1.0,+,97.92,Active,0,LEO,French Guiana,Taiwan,Unknown,Unknown,Unknown,1 58017U 23155B   24011.17331785  .00002459  00000+0  26808-3 0  9996,2 58017  97.9187  85.1602 0003569  68.0803 292.0793 14.88883821 13999,14.88883821,0.0003569,LEO
58018,ANSER-FLW2,2023,96.03,-1.0,+,97.66,Active,0,LEO,French Guiana,Spain,Unknown,Unknown,Unknown,1 58018U 23155C   24011.37671235  .00002041  00000+0  17076-3 0  9990,2 58018  97.6593  83.6684 0006684  16.2447 343.8989 14.99559070 14127,14.9955907,0.0006684,LEO
58019,ANSER-FLW1,2023,96.02,-1.0,+,97.66,Active,0,LEO,French Guiana,Spain,Unknown,Unknown,Unknown,1 58019U 23155D   24011.43923423  .00002834  00000+0  23440-3 0  9999,2 58019  97.6603  83.7402 0007157  15.7459 344.3986 14.99690679 14137,14.99690679,0.0007157,LEO
58020,NESS,2023,95.97,-1.0,+,97.66,Active,0,LEO,French Guiana,France,Unknown,Unknown,Unknown,1 58020U 23155E   24011.14542216  .00009533  00000+0  76080-3 0  9997,2 58020  97.6636  83.5070 0010803  34.4259 325.7662 15.00451905 14091,15.00451905,0.0010803,LEO
58021,CSC-2,2023,95.99,-1.0,+,97.67,Active,0,LEO,French Guiana,Netherlands,Unknown,Unknown,Soyuz,1 58021U 23155F   24011.15498822  .00008103  00000+0  65351-3 0  9993,2 58021  97.6667  83.5107 0007328  36.9425 323.2301 15.00124637 14099,15.00124637,0.0007328,LEO
58022,CSC-1,2023,95.99,-1.0,+,97.66,Active,0,LEO,French Guiana,Netherlands,Unknown,Unknown,Soyuz,1 58022U 23155G   24011.14888224  .00004995  00000+0  40454-3 0  9994,2 58022  97.6640  83.5023 0008215  44.1130 316.0747 15.00144515 14099,15.00144515,0.0008215,LEO
58023,PRETTY,2023,95.92,-1.0,+,97.66,Active,0,LEO,French Guiana,Austria,Unknown,Unknown,Unknown,1 58023U 23155H   24011.16177639  .00008610  00000+0  67453-3 0  9994,2 58023  97.6593  83.6830 0002226 152.9650 207.1690 15.01235988 14100,15.01235988,0.0002226,LEO
58024,MACSAT (FINCH 1),2023,95.93,-1.0,+,97.66,Active,0,LEO,French Guiana,Luxembourg,Unknown,Unknown,Scout,1 58024U 23155J   24011.16137627  .00008135  00000+0  63859-3 0  9996,2 58024  97.6637  83.7040 0002432 171.1113 189.0155 15.01175892 14101,15.01175892,0.0002432,LEO
58025,PVCC,2023,95.93,-1.0,+,97.67,Active,0,LEO,French Guiana,Belgium,Unknown,Unknown,Vega,1 58025U 23155K   24011.42895714  .00005166  00000+0  40896-3 0  9991,2 58025  97.6658  83.9790 0001862 228.7758 131.3306 15.01031010 14144,15.0103101,0.0001862,LEO
58028,STARLINK-30514,2023,94.82,-1.0,+,53.06,Active,0,LEO,USA,USA,Unknown,Unknown,Falcon,1 58028U 23156A   24010.65775692  .00000270  00000+0  27986-4 0  9998,2 58028  53.0582 144.1869 0001141  92.2917 267.8208 15.18726582 15518,15.18726582,0.0001141,LEO
58029,STARLINK-30518,2023,94.82,-1.0,+,53.06,Active,0,LEO,USA,USA,Unknown,Unknown,Falcon,1 58029U 23156B   24011.50819794  .00000747  00000+0  50711-4 0  9997,2 58029  53.0579 140.2414 0001619 120.7648 239.3506 15.18718674 15648,15.18718674,0.0001619,LEO
58030,STARLINK-30549,2023,94.82,-1.0,+,53.06,Active,0,LEO,USA,USA,Unknown,Unknown,Falcon,1 58030U 23156C   24011.50697622  .00004389  00000+0  22374-3 0  9992,2 58030  53.0581 138.1005 0001380 102.9084 257.2065 15.18736939 15346,15.18736939,0.000138,LEO
58031,STARLINK-30556,2023,94.82,-1.0,+,53.06,Active,0,LEO,USA,USA,Unknown,Unknown,Falcon,1 58031U 23156D   24010.78391360  .00000022  00000+0  16187-4 0  9998,2 58031  53.0593 143.5623 0001147 107.8040 252.3080 15.18723146 15533,15.18723146,0.0001147,LEO
58032,STARLINK-30561,2023,94.82,-1.0,+,53.05,Active,0,LEO,USA,USA,Unknown,Unknown,Falcon,1 58032U 23156E   24010.67785662  .00004798  00000+0  24323-3 0  9993,2 58032  53.0525 142.8825 0001783  53.3635 306.7523 15.18731941 15523,15.18731941,0.0001783,LEO
58033,STARLINK-30562,2023,94.82,-1.0,+,53.06,Active,0,LEO,USA,USA,Unknown,Unknown,Falcon,1 58033U 23156F   24011.52228100  .00000503  00000+0  39098-4 0  9994,2 58033  53.0545 138.8968 0001434  84.2524 275.8634 15.18722358 15668,15.18722358,0.0001434,LEO
58034,STARLINK-30565,2023,94.82,-1.0,+,53.05,Active,0,LEO,USA,USA,Unknown,Unknown,Falcon,1 58034U 23156G   24010.68761071  .00015715  00000+0  76107-3 0  9992,2 58034  53.0524 142.9420 0001530  75.3537 284.7627 15.18730875 15537,15.18730875,0.000153,LEO
58035,STARLINK-30438,2023,94.82,-1.0,+,53.05,Active,0,LEO,USA,USA,Unknown,Unknown,Falcon,1 58035U 23156H   24010.63241783  .00018733  00000+0  90411-3 0  9998,2 58035  53.0523 144.0294 0001262  75.4926 284.6208 15.18724453 15173,15.18724453,0.0001262,LEO
